start=new Date('2022-05-13T00:00:00.000Z').valueOf();
sats=[{"TLE_LINE2":"2 47600  53.0529 152.5589 0001599  53.0712 307.0423 15.06395974 70533","REV_AT_EPOCH":"7053","EPOCH":"2022-05-12T18:55:49.846368","REF_FRAME":"TEME","FILE":"3442534","LAUNCH_DATE":"2021-02-04","COUNTRY_CODE":"US","INCLINATION":"53.0529","OBJECT_ID":"2021-009BE","RCS_SIZE":"LARGE","MEAN_ELEMENT_THEORY":"SGP4","EPHEMERIS_TYPE":"0","ARG_OF_PERICENTER":"53.0712","MEAN_MOTION":"15.06395974","DECAY_DATE":null,"PERIAPSIS":"546.119","MEAN_MOTION_DOT":"-0.00000440","CENTER_NAME":"EARTH","MEAN_MOTION_DDOT":"0.0000000000000","GP_ID":"203390580","SEMIMAJOR_AXIS":"6925.361","OBJECT_NAME":"STARLINK-2005","OBJECT_TYPE":"PAYLOAD","SITE":"AFETR","NORAD_CAT_ID":"47600","APOAPSIS":"548.333","RA_OF_ASC_NODE":"152.5589","ELEMENT_SET_NO":"999","ECCENTRICITY":"0.00015990","CLASSIFICATION_TYPE":"U","PERIOD":"95.592","MEAN_ANOMALY":"307.0423","TIME_SYSTEM":"UTC","TLE_LINE1":"1 47600U 21009BE  22132.78877137 -.00000440  00000-0 -10640-4 0  9992","BSTAR":"-0.00001064000000"},{"TLE_LINE2":"2 47601  53.0537 154.1635 0001853  47.6973 312.4173 15.06394227 70479","REV_AT_EPOCH":"7047","EPOCH":"2022-05-12T10:22:20.144640","REF_FRAME":"TEME","FILE":"3442533","LAUNCH_DATE":"2021-02-04","OBJECT_ID":"2021-009BF","INCLINATION":"53.0537","COUNTRY_CODE":"US","MEAN_ELEMENT_THEORY":"SGP4","RCS_SIZE":"LARGE","ARG_OF_PERICENTER":"47.6973","EPHEMERIS_TYPE":"0","MEAN_MOTION":"15.06394227","DECAY_DATE":null,"PERIAPSIS":"545.948","CENTER_NAME":"EARTH","MEAN_MOTION_DOT":"-0.00000010","MEAN_MOTION_DDOT":"0.0000000000000","GP_ID":"203367169","SEMIMAJOR_AXIS":"6925.366","OBJECT_NAME":"STARLINK-2006","OBJECT_TYPE":"PAYLOAD","SITE":"AFETR","APOAPSIS":"548.515","NORAD_CAT_ID":"47601","ELEMENT_SET_NO":"999","RA_OF_ASC_NODE":"154.1635","PERIOD":"95.593","ECCENTRICITY":"0.00018530","CLASSIFICATION_TYPE":"U","TIME_SYSTEM":"UTC","MEAN_ANOMALY":"312.4173","TLE_LINE1":"1 47601U 21009BF  22132.43217760 -.00000010  00000-0  18265-4 0  9998","BSTAR":"0.00001826500000"},{"ELEMENT_SET_NO":"999","RA_OF_ASC_NODE":"162.5730","APOAPSIS":"548.685","NORAD_CAT_ID":"47602","SITE":"AFETR","OBJECT_NAME":"STARLINK-2007","OBJECT_TYPE":"PAYLOAD","GP_ID":"203392081","SEMIMAJOR_AXIS":"6925.341","BSTAR":"0.00020001000000","TLE_LINE1":"1 47602U 21009BG  22132.78509110  .00002699  00000-0  20001-3 0  9994","TIME_SYSTEM":"UTC","MEAN_ANOMALY":"312.6312","PERIOD":"95.592","ECCENTRICITY":"0.00021360","CLASSIFICATION_TYPE":"U","LAUNCH_DATE":"2021-02-04","FILE":"3442534","REF_FRAME":"TEME","EPOCH":"2022-05-12T18:50:31.871040","REV_AT_EPOCH":"7038","TLE_LINE2":"2 47602  53.0550 162.5730 0002136  47.4857 312.6312 15.06402398 70384","MEAN_MOTION_DDOT":"0.0000000000000","MEAN_MOTION_DOT":"0.00002699","CENTER_NAME":"EARTH","PERIAPSIS":"545.727","DECAY_DATE":null,"MEAN_MOTION":"15.06402398","ARG_OF_PERICENTER":"47.4857","EPHEMERIS_TYPE":"0","MEAN_ELEMENT_THEORY":"SGP4","RCS_SIZE":"LARGE","INCLINATION":"53.0550","OBJECT_ID":"2021-009BG","COUNTRY_CODE":"US"},{"COUNTRY_CODE":"US","INCLINATION":"53.0552","OBJECT_ID":"2021-009BH","RCS_SIZE":"LARGE","MEAN_ELEMENT_THEORY":"SGP4","EPHEMERIS_TYPE":"0","ARG_OF_PERICENTER":"42.8247","MEAN_MOTION":"15.06397666","DECAY_DATE":null,"PERIAPSIS":"545.783","CENTER_NAME":"EARTH","MEAN_MOTION_DOT":"0.00000869","MEAN_MOTION_DDOT":"0.0000000000000","TLE_LINE2":"2 47603  53.0552 192.2163 0002076  42.8247 317.2904 15.06397666 69974","REV_AT_EPOCH":"6997","EPOCH":"2022-05-12T20:43:20.129952","REF_FRAME":"TEME","FILE":"3442534","LAUNCH_DATE":"2021-02-04","ECCENTRICITY":"0.00020760","CLASSIFICATION_TYPE":"U","PERIOD":"95.592","MEAN_ANOMALY":"317.2904","TIME_SYSTEM":"UTC","TLE_LINE1":"1 47603U 21009BH  22132.86342743  .00000869  00000-0  77232-4 0  9997","BSTAR":"0.00007723200000","SEMIMAJOR_AXIS":"6925.356","GP_ID":"203391831","OBJECT_TYPE":"PAYLOAD","OBJECT_NAME":"STARLINK-2008","SITE":"AFETR","NORAD_CAT_ID":"47603","APOAPSIS":"548.658","RA_OF_ASC_NODE":"192.2163","ELEMENT_SET_NO":"999"},{"OBJECT_TYPE":"PAYLOAD","OBJECT_NAME":"STARLINK-2021","GP_ID":"203391080","SEMIMAJOR_AXIS":"6925.332","ELEMENT_SET_NO":"999","RA_OF_ASC_NODE":"162.5316","APOAPSIS":"548.530","NORAD_CAT_ID":"47604","SITE":"AFETR","TIME_SYSTEM":"UTC","MEAN_ANOMALY":"315.9673","PERIOD":"95.592","ECCENTRICITY":"0.00019250","CLASSIFICATION_TYPE":"U","BSTAR":"0.00006716600000","TLE_LINE1":"1 47604U 21009BJ  22132.79246112  .00000719  00000-0  67166-4 0  9992","EPOCH":"2022-05-12T19:01:08.640768","REV_AT_EPOCH":"7039","TLE_LINE2":"2 47604  53.0540 162.5316 0001925  44.1470 315.9673 15.06405440 70393","LAUNCH_DATE":"2021-02-04","FILE":"3442534","REF_FRAME":"TEME","MEAN_MOTION":"15.06405440","ARG_OF_PERICENTER":"44.1470","EPHEMERIS_TYPE":"0","MEAN_ELEMENT_THEORY":"SGP4","RCS_SIZE":"LARGE","INCLINATION":"53.0540","OBJECT_ID":"2021-009BJ","COUNTRY_CODE":"US","MEAN_MOTION_DDOT":"0.0000000000000","CENTER_NAME":"EARTH","MEAN_MOTION_DOT":"0.00000719","PERIAPSIS":"545.864","DECAY_DATE":null},{"FILE":"3442534","REF_FRAME":"TEME","LAUNCH_DATE":"2021-02-04","TLE_LINE2":"2 47605  53.0463  94.7931 0005526  81.1755 278.9894 15.84425737 71341","EPOCH":"2022-05-12T21:41:30.015168","REV_AT_EPOCH":"7134","PERIAPSIS":"314.244","DECAY_DATE":null,"MEAN_MOTION_DDOT":"0.0000000000000","CENTER_NAME":"EARTH","MEAN_MOTION_DOT":"0.00215574","RCS_SIZE":"LARGE","MEAN_ELEMENT_THEORY":"SGP4","COUNTRY_CODE":"US","INCLINATION":"53.0463","OBJECT_ID":"2021-009BK","MEAN_MOTION":"15.84425737","EPHEMERIS_TYPE":"0","ARG_OF_PERICENTER":"81.1755","NORAD_CAT_ID":"47605","APOAPSIS":"321.644","SITE":"AFETR","RA_OF_ASC_NODE":"94.7931","ELEMENT_SET_NO":"999","GP_ID":"203391330","SEMIMAJOR_AXIS":"6696.079","OBJECT_NAME":"STARLINK-2023","OBJECT_TYPE":"PAYLOAD","TLE_LINE1":"1 47605U 21009BK  22132.90381962  .00215574  00000-0  90415-3 0  9998","BSTAR":"0.00090415000000","ECCENTRICITY":"0.00055260","CLASSIFICATION_TYPE":"U","PERIOD":"90.885","MEAN_ANOMALY":"278.9894","TIME_SYSTEM":"UTC"},{"LAUNCH_DATE":"2021-02-04","FILE":"3442534","REF_FRAME":"TEME","EPOCH":"2022-05-12T19:06:28.434816","REV_AT_EPOCH":"7039","TLE_LINE2":"2 47606  53.0547 162.5297 0001761  52.8851 307.2299 15.06394687 70395","MEAN_MOTION_DDOT":"0.0000000000000","MEAN_MOTION_DOT":"0.00000079","CENTER_NAME":"EARTH","PERIAPSIS":"546.010","DECAY_DATE":null,"MEAN_MOTION":"15.06394687","EPHEMERIS_TYPE":"0","ARG_OF_PERICENTER":"52.8851","RCS_SIZE":"LARGE","MEAN_ELEMENT_THEORY":"SGP4","COUNTRY_CODE":"US","INCLINATION":"53.0547","OBJECT_ID":"2021-009BL","RA_OF_ASC_NODE":"162.5297","ELEMENT_SET_NO":"999","NORAD_CAT_ID":"47606","APOAPSIS":"548.449","SITE":"AFETR","OBJECT_TYPE":"PAYLOAD","OBJECT_NAME":"STARLINK-2024","GP_ID":"203391581","SEMIMAJOR_AXIS":"6925.365","BSTAR":"0.00002418900000","TLE_LINE1":"1 47606U 21009BL  22132.79616244  .00000079  00000-0  24189-4 0  9998","TIME_SYSTEM":"UTC","MEAN_ANOMALY":"307.2299","ECCENTRICITY":"0.00017610","CLASSIFICATION_TYPE":"U","PERIOD":"95.592"},{"TLE_LINE2":"2 47607  53.0547 162.6187 0002405  37.8662 322.2496 15.06390600 70380","EPOCH":"2022-05-12T18:34:37.515648","REV_AT_EPOCH":"7038","FILE":"3442534","REF_FRAME":"TEME","LAUNCH_DATE":"2021-02-04","RCS_SIZE":"LARGE","MEAN_ELEMENT_THEORY":"SGP4","COUNTRY_CODE":"US","INCLINATION":"53.0547","OBJECT_ID":"2021-009BM","MEAN_MOTION":"15.06390600","EPHEMERIS_TYPE":"0","ARG_OF_PERICENTER":"37.8662","PERIAPSIS":"545.577","DECAY_DATE":null,"MEAN_MOTION_DDOT":"0.0000000000000","CENTER_NAME":"EARTH","MEAN_MOTION_DOT":"0.00000124","GP_ID":"203392332","SEMIMAJOR_AXIS":"6925.377","OBJECT_TYPE":"PAYLOAD","OBJECT_NAME":"STARLINK-2025","NORAD_CAT_ID":"47607","APOAPSIS":"548.908","SITE":"AFETR","RA_OF_ASC_NODE":"162.6187","ELEMENT_SET_NO":"999","ECCENTRICITY":"0.00024050","CLASSIFICATION_TYPE":"U","PERIOD":"95.593","MEAN_ANOMALY":"322.2496","TIME_SYSTEM":"UTC","TLE_LINE1":"1 47607U 21009BM  22132.77404532  .00000124  00000-0  27254-4 0  9999","BSTAR":"0.00002725400000"},{"MEAN_ANOMALY":"297.7054","TIME_SYSTEM":"UTC","ECCENTRICITY":"0.00016770","CLASSIFICATION_TYPE":"U","PERIOD":"95.592","BSTAR":"0.00005500600000","TLE_LINE1":"1 47620U 21012A   22132.65792835  .00000538  00000-0  55006-4 0  9996","OBJECT_TYPE":"PAYLOAD","OBJECT_NAME":"STARLINK-1528","GP_ID":"203391331","SEMIMAJOR_AXIS":"6925.339","RA_OF_ASC_NODE":"223.1345","ELEMENT_SET_NO":"999","NORAD_CAT_ID":"47620","APOAPSIS":"548.365","SITE":"AFETR","MEAN_MOTION":"15.06403090","EPHEMERIS_TYPE":"0","ARG_OF_PERICENTER":"62.4105","RCS_SIZE":"LARGE","MEAN_ELEMENT_THEORY":"SGP4","COUNTRY_CODE":"US","INCLINATION":"53.0541","OBJECT_ID":"2021-012A","MEAN_MOTION_DDOT":"0.0000000000000","CENTER_NAME":"EARTH","MEAN_MOTION_DOT":"0.00000538","PERIAPSIS":"546.043","DECAY_DATE":null,"EPOCH":"2022-05-12T15:47:25.009440","REV_AT_EPOCH":"6941","TLE_LINE2":"2 47620  53.0541 223.1345 0001677  62.4105 297.7054 15.06403090 69410","LAUNCH_DATE":"2021-02-16","FILE":"3442534","REF_FRAME":"TEME"},{"SITE":"AFETR","APOAPSIS":"548.548","NORAD_CAT_ID":"47621","ELEMENT_SET_NO":"999","RA_OF_ASC_NODE":"223.7727","SEMIMAJOR_AXIS":"6925.327","GP_ID":"203365420","OBJECT_TYPE":"PAYLOAD","OBJECT_NAME":"STARLINK-1609","TLE_LINE1":"1 47621U 21012B   22132.51786477  .00000181  00000-0  31088-4 0  9995","BSTAR":"0.00003108800000","PERIOD":"95.592","CLASSIFICATION_TYPE":"U","ECCENTRICITY":"0.00019580","TIME_SYSTEM":"UTC","MEAN_ANOMALY":"312.5563","REF_FRAME":"TEME","FILE":"3442533","LAUNCH_DATE":"2021-02-16","TLE_LINE2":"2 47621  53.0539 223.7727 0001958  47.5592 312.5563 15.06407074 69400","REV_AT_EPOCH":"6940","EPOCH":"2022-05-12T12:25:43.516128","DECAY_DATE":null,"PERIAPSIS":"545.836","MEAN_MOTION_DOT":"0.00000181","CENTER_NAME":"EARTH","MEAN_MOTION_DDOT":"0.0000000000000","OBJECT_ID":"2021-012B","INCLINATION":"53.0539","COUNTRY_CODE":"US","MEAN_ELEMENT_THEORY":"SGP4","RCS_SIZE":"LARGE","ARG_OF_PERICENTER":"47.5592","EPHEMERIS_TYPE":"0","MEAN_MOTION":"15.06407074"}];
